LEMUR-2-FINNIAN         
1 66782U 25276DX  26179.95096155  .00002879  00000+0  23306-3 0  9998
2 66782  97.5326 250.5717 0008647  55.2677 304.9361 15.00474231 21766
LEMUR-2-STARLIGHT       
1 66783U 25276DY  26179.91776016  .00006290  00000+0  52017-3 0  9998
2 66783  97.5241 250.1554 0014650  94.4826 265.8072 14.99172539 31959
LEMUR-2-TARTIFLETTE     
1 66784U 25276DZ  26179.91609161  .00005188  00000+0  43002-3 0  9994
2 66784  97.5245 250.1615 0013644 101.8271 258.4484 14.99178588 31956
LEMUR-2-VUKASIN         
1 66785U 25276EA  26179.69960436  .00001375  00000+0  11389-3 0  9992
2 66785  97.5288 250.2774 0005331  97.4606 262.7224 15.00431626 31876
LEMUR-2-HOTSPUR-TOM     
1 66786U 25276EB  26179.70920941  .00005182  00000+0  43052-3 0  9994
2 66786  97.5241 249.9405 0014546  94.2175 266.0711 14.99077008 31859
LEMUR-2-MYRA            
1 66787U 25276EC  26179.93183483  .00006632  00000+0  53038-3 0  9998
2 66787  97.5220 250.4278 0017924 103.8595 256.4625 15.00404325 31977
LEMUR-2 FIKRETDENGIZ    
1 67363U 26004A   26179.96667752  .00003451  00000+0  37773-3 0  9992
2 67363  97.8013 178.3439 0010565 100.0099 260.2311 14.88408498 25035
TWILIGHT-1 OBJECT B     
1 67364U 26004B   26179.72718308  .00001796  00000+0  20279-3 0  9994
2 67364  97.8064 178.1181 0010285  91.9829 268.2565 14.87740806 25009
LEMUR-2-MARIO-SOUSA     
1 67365U 26004C   26179.94877180  .00004591  00000+0  49817-3 0  9998
2 67365  97.7986 178.3219 0010231 101.2397 258.9971 14.88605889 25045
LEMUR-2-SONNENBLUME     
1 67367U 26004E   26179.94884435  .00003047  00000+0  33454-3 0  9996
2 67367  97.7983 178.3019 0009697 102.5604 257.6698 14.88376193 25046
LEMUR-2-WOBLER          
1 67368U 26004F   26179.94067956  .00003944  00000+0  42892-3 0  9990
2 67368  97.8036 178.4280 0010031  93.9870 266.2494 14.88594060 25045
LEMUR-2-GRAM-E-SUE      
1 67370U 26004H   26179.93178812  .00002443  00000+0  26853-3 0  9998
2 67370  97.7970 178.3009 0008801 104.2406 255.9789 14.88520622 25040
LEMUR-2-KATIE           
1 67387U 26004AA  26179.97371034  .00002720  00000+0  28697-3 0  9997
2 67387  97.8033 178.8399 0004617  68.2004 291.9705 14.90118968 25069
LEMUR-2-HCS-BAZUS       
1 67388U 26004AB  26179.97244688  .00004483  00000+0  46832-3 0  9991
2 67388  97.8020 178.8184 0004059  66.6259 293.5386 14.90181993 25063
