OBJECT_NAME,OBJECT_ID,EPOCH,MEAN_MOTION,ECCENTRICITY,INCLINATION,RA_OF_ASC_NODE,ARG_OF_PERICENTER,MEAN_ANOMALY,EPHEMERIS_TYPE,CLASSIFICATION_TYPE,NORAD_CAT_ID,ELEMENT_SET_NO,REV_AT_EPOCH,BSTAR,MEAN_MOTION_DOT,MEAN_MOTION_DDOT
LEMUR-2-FINNIAN,2025-276DX,2026-06-28T22:49:23.077920,15.00474231,.00086472,97.5326,250.5717,55.2677,304.9361,0,U,66782,999,2176,.23306448E-3,.2879E-4,0
LEMUR-2-STARLIGHT,2025-276DY,2026-06-28T22:01:34.477824,14.99172539,.00146505,97.5241,250.1554,94.4826,265.8072,0,U,66783,999,3195,.52017111E-3,.629E-4,0
LEMUR-2-TARTIFLETTE,2025-276DZ,2026-06-28T21:59:10.315104,14.99178588,.00136446,97.5245,250.1615,101.8271,258.4484,0,U,66784,999,3195,.43001832E-3,.5188E-4,0
LEMUR-2-VUKASIN,2025-276EA,2026-06-28T16:47:25.816704,15.00431626,.00053316,97.5288,250.2774,97.4606,262.7224,0,U,66785,999,3187,.11389477E-3,.1375E-4,0
LEMUR-2-HOTSPUR-TOM,2025-276EB,2026-06-28T17:01:15.693024,14.99077008,.00145461,97.5241,249.9405,94.2175,266.0711,0,U,66786,999,3185,.43052196E-3,.5182E-4,0
LEMUR-2-MYRA,2025-276EC,2026-06-28T22:21:50.529312,15.00404325,.00179249,97.5220,250.4278,103.8595,256.4625,0,U,66787,999,3197,.53038219E-3,.6632E-4,0
LEMUR-2 FIKRETDENGIZ,2026-004A,2026-06-28T23:12:00.937728,14.88408498,.00105654,97.8013,178.3439,100.0099,260.2311,0,U,67363,999,2503,.37772812E-3,.3451E-4,0
TWILIGHT-1 OBJECT B,2026-004B,2026-06-28T17:27:08.618112,14.87740806,.00102852,97.8064,178.1181,91.9829,268.2565,0,U,67364,999,2500,.20279225E-3,.1796E-4,0
LEMUR-2-MARIO-SOUSA,2026-004C,2026-06-28T22:46:13.883520,14.88605889,.00102319,97.7986,178.3219,101.2397,258.9971,0,U,67365,999,2504,.49816949E-3,.4591E-4,0
LEMUR-2-SONNENBLUME,2026-004E,2026-06-28T22:46:20.151840,14.88376193,.00096976,97.7983,178.3019,102.5604,257.6698,0,U,67367,999,2504,.33453845E-3,.3047E-4,0
LEMUR-2-WOBLER,2026-004F,2026-06-28T22:34:34.713984,14.88594060,.00100315,97.8036,178.4280,93.9870,266.2494,0,U,67368,999,2504,.42891848E-3,.3944E-4,0
LEMUR-2-GRAM-E-SUE,2026-004H,2026-06-28T22:21:46.493568,14.88520622,.00088017,97.7970,178.3009,104.2406,255.9789,0,U,67370,999,2504,.26852817E-3,.2443E-4,0
LEMUR-2-KATIE,2026-004AA,2026-06-28T23:22:08.573376,14.90118968,.00046178,97.8033,178.8399,68.2004,291.9705,0,U,67387,999,2506,.28697121E-3,.272E-4,0
LEMUR-2-HCS-BAZUS,2026-004AB,2026-06-28T23:20:19.410432,14.90181993,.00040591,97.8020,178.8184,66.6259,293.5386,0,U,67388,999,2506,.46831786E-3,.4483E-4,0
